{"type": "FeatureCollection", "features": [{"type": "Feature", "properties": {"sc": "1", "num_muestra": 1, "codigo_muestra": "1", "tipologia": "C", "etiqueta": "1 | C", "etiquetaSC": "1 | C", "parroquia": "AMBUQUI / CHOTA", "circunscripcion": "CIRCUNSCRIPCION RURAL", "canton": "IBARRA", "sec_anm": "100151001002", "pob_t": 291.0, "v_pres": 81.0, "dens_pob": 4323.9, "bbox": [[-78.009506, 0.431273], [-78.007614, 0.436721]], "centroid": [-78.008752, 0.434001]}, "geometry": {"type": "Point", "coordinates": [-78.008752, 0.434001]}}, {"type": "Feature", "properties": {"sc": "2", "num_muestra": 2, "codigo_muestra": "2", "tipologia": "B", "etiqueta": "2 | B", "etiquetaSC": "2 | B", "parroquia": "AMBUQUI / CHOTA", "circunscripcion": "CIRCUNSCRIPCION RURAL", "canton": "IBARRA", "sec_anm": "100151907003", "pob_t": 413.0, "v_pres": 125.0, "dens_pob": 14697.5, "bbox": [[-77.966626, 0.432277], [-77.963859, 0.434242]], "centroid": [-77.965153, 0.433266]}, "geometry": {"type": "Point", "coordinates": [-77.965153, 0.433266]}}, {"type": "Feature", "properties": {"sc": "3", "num_muestra": 3, "codigo_muestra": "3", "tipologia": "F", "etiqueta": "3 | F", "etiquetaSC": "3 | F", "parroquia": "ANGOCHAGUA", "circunscripcion": "CIRCUNSCRIPCION RURAL", "canton": "IBARRA", "sec_anm": "100152001001", "pob_t": 160.0, "v_pres": 58.0, "dens_pob": 226.2, "bbox": [[-78.087212, 0.233063], [-78.075639, 0.242883]], "centroid": [-78.080141, 0.23788]}, "geometry": {"type": "Point", "coordinates": [-78.080141, 0.23788]}}, {"type": "Feature", "properties": {"sc": "4", "num_muestra": 4, "codigo_muestra": "4", "tipologia": "E", "etiqueta": "4 | E", "etiquetaSC": "4 | E", "parroquia": "LA ESPERANZA", "circunscripcion": "CIRCUNSCRIPCION RURAL", "canton": "IBARRA", "sec_anm": "100154001005", "pob_t": 338.0, "v_pres": 108.0, "dens_pob": 844.4, "bbox": [[-78.117695, 0.288244], [-78.110018, 0.295054]], "centroid": [-78.114135, 0.291643]}, "geometry": {"type": "Point", "coordinates": [-78.114135, 0.291643]}}, {"type": "Feature", "properties": {"sc": "5", "num_muestra": 5, "codigo_muestra": "5", "tipologia": "H", "etiqueta": "5 | H", "etiquetaSC": "5 | H", "parroquia": "LA ESPERANZA", "circunscripcion": "CIRCUNSCRIPCION RURAL", "canton": "IBARRA", "sec_anm": "100154001009", "pob_t": 437.0, "v_pres": 109.0, "dens_pob": 1556.8, "bbox": [[-78.111092, 0.271608], [-78.105382, 0.282094]], "centroid": [-78.108302, 0.276855]}, "geometry": {"type": "Point", "coordinates": [-78.108302, 0.276855]}}, {"type": "Feature", "properties": {"sc": "6", "num_muestra": 6, "codigo_muestra": "6", "tipologia": "G", "etiqueta": "6 | G", "etiquetaSC": "6 | G", "parroquia": "SALINAS", "circunscripcion": "CIRCUNSCRIPCION RURAL", "canton": "IBARRA", "sec_anm": "100156001002", "pob_t": 375.0, "v_pres": 102.0, "dens_pob": 5580.4, "bbox": [[-78.132691, 0.493926], [-78.128274, 0.497646]], "centroid": [-78.130325, 0.495813]}, "geometry": {"type": "Point", "coordinates": [-78.130325, 0.495813]}}, {"type": "Feature", "properties": {"sc": "7", "num_muestra": 7, "codigo_muestra": "7", "tipologia": "D", "etiqueta": "7 | D", "etiquetaSC": "7 | D", "parroquia": "SAN ANTONIO", "circunscripcion": "CIRCUNSCRIPCION RURAL", "canton": "IBARRA", "sec_anm": "100157004001", "pob_t": 423.0, "v_pres": 127.0, "dens_pob": 1379.2, "bbox": [[-78.181956, 0.325548], [-78.17311, 0.333303]], "centroid": [-78.178509, 0.329428]}, "geometry": {"type": "Point", "coordinates": [-78.178509, 0.329428]}}, {"type": "Feature", "properties": {"sc": "8", "num_muestra": 8, "codigo_muestra": "8", "tipologia": "G", "etiqueta": "8 | G", "etiquetaSC": "8 | G", "parroquia": "SAN ANTONIO", "circunscripcion": "CIRCUNSCRIPCION RURAL", "canton": "IBARRA", "sec_anm": "100157003011", "pob_t": 589.0, "v_pres": 167.0, "dens_pob": 3114.8, "bbox": [[-78.160749, 0.31218], [-78.154675, 0.318451]], "centroid": [-78.158079, 0.315316]}, "geometry": {"type": "Point", "coordinates": [-78.158079, 0.315316]}}, {"type": "Feature", "properties": {"sc": "9", "num_muestra": 9, "codigo_muestra": "9", "tipologia": "F", "etiqueta": "9 | F", "etiquetaSC": "9 | F", "parroquia": "SAN ANTONIO", "circunscripcion": "CIRCUNSCRIPCION RURAL", "canton": "IBARRA", "sec_anm": "100157003008", "pob_t": 406.0, "v_pres": 108.0, "dens_pob": 1362.0, "bbox": [[-78.177778, 0.318464], [-78.167228, 0.327628]], "centroid": [-78.171839, 0.323044]}, "geometry": {"type": "Point", "coordinates": [-78.171839, 0.323044]}}, {"type": "Feature", "properties": {"sc": "10", "num_muestra": 10, "codigo_muestra": "10", "tipologia": "A", "etiqueta": "10 | A", "etiquetaSC": "10 | A", "parroquia": "SAN ANTONIO", "circunscripcion": "CIRCUNSCRIPCION RURAL", "canton": "IBARRA", "sec_anm": "100157001002", "pob_t": 552.0, "v_pres": 147.0, "dens_pob": 3428.6, "bbox": [[-78.165897, 0.337965], [-78.158058, 0.342985]], "centroid": [-78.163284, 0.340457]}, "geometry": {"type": "Point", "coordinates": [-78.163284, 0.340457]}}, {"type": "Feature", "properties": {"sc": "11", "num_muestra": 11, "codigo_muestra": "11", "tipologia": "C", "etiqueta": "11 | C", "etiquetaSC": "11 | C", "parroquia": "SAN ANTONIO", "circunscripcion": "CIRCUNSCRIPCION RURAL", "canton": "IBARRA", "sec_anm": "100157002003", "pob_t": 388.0, "v_pres": 134.0, "dens_pob": 5344.4, "bbox": [[-78.171708, 0.33136], [-78.168826, 0.335731]], "centroid": [-78.170355, 0.333719]}, "geometry": {"type": "Point", "coordinates": [-78.170355, 0.333719]}}, {"type": "Feature", "properties": {"sc": "12", "num_muestra": 12, "codigo_muestra": "12", "tipologia": "A", "etiqueta": "12 | A", "etiquetaSC": "12 | A", "parroquia": "GUAYAQUIL DE ALPACHACA", "circunscripcion": "CIRCUNSCRIPCION URBANA 1", "canton": "IBARRA", "sec_anm": "100150001001", "pob_t": 380.0, "v_pres": 114.0, "dens_pob": 8715.6, "bbox": [[-78.13008, 0.383204], [-78.127612, 0.386586]], "centroid": [-78.128625, 0.384902]}, "geometry": {"type": "Point", "coordinates": [-78.128625, 0.384902]}}, {"type": "Feature", "properties": {"sc": "13", "num_muestra": 13, "codigo_muestra": "13", "tipologia": "C", "etiqueta": "13 | C", "etiquetaSC": "13 | C", "parroquia": "GUAYAQUIL DE ALPACHACA", "circunscripcion": "CIRCUNSCRIPCION URBANA 1", "canton": "IBARRA", "sec_anm": "100150012007", "pob_t": 334.0, "v_pres": 99.0, "dens_pob": 1469.4, "bbox": [[-78.139992, 0.356967], [-78.134326, 0.362702]], "centroid": [-78.135921, 0.359856]}, "geometry": {"type": "Point", "coordinates": [-78.135921, 0.359856]}}, {"type": "Feature", "properties": {"sc": "14", "num_muestra": 14, "codigo_muestra": "14", "tipologia": "D", "etiqueta": "14 | D", "etiquetaSC": "14 | D", "parroquia": "GUAYAQUIL DE ALPACHACA", "circunscripcion": "CIRCUNSCRIPCION URBANA 1", "canton": "IBARRA", "sec_anm": "100150009001", "pob_t": 456.0, "v_pres": 123.0, "dens_pob": 2785.6, "bbox": [[-78.135767, 0.367618], [-78.131013, 0.373423]], "centroid": [-78.134234, 0.370521]}, "geometry": {"type": "Point", "coordinates": [-78.134234, 0.370521]}}, {"type": "Feature", "properties": {"sc": "15", "num_muestra": 15, "codigo_muestra": "15", "tipologia": "E", "etiqueta": "15 | E", "etiquetaSC": "15 | E", "parroquia": "LA DOLOROSA DEL PRIORATO", "circunscripcion": "CIRCUNSCRIPCION URBANA 1", "canton": "IBARRA", "sec_anm": "100150004005", "pob_t": 384.0, "v_pres": 120.0, "dens_pob": 5140.6, "bbox": [[-78.105736, 0.382032], [-78.102109, 0.386437]], "centroid": [-78.103937, 0.384231]}, "geometry": {"type": "Point", "coordinates": [-78.103937, 0.384231]}}, {"type": "Feature", "properties": {"sc": "16", "num_muestra": 16, "codigo_muestra": "16", "tipologia": "H", "etiqueta": "16 | H", "etiquetaSC": "16 | H", "parroquia": "SAGRARIO", "circunscripcion": "CIRCUNSCRIPCION URBANA 1", "canton": "IBARRA", "sec_anm": "100150022007", "pob_t": 458.0, "v_pres": 136.0, "dens_pob": 10553.0, "bbox": [[-78.140927, 0.346974], [-78.138283, 0.349257]], "centroid": [-78.139607, 0.348148]}, "geometry": {"type": "Point", "coordinates": [-78.139607, 0.348148]}}, {"type": "Feature", "properties": {"sc": "17", "num_muestra": 17, "codigo_muestra": "17", "tipologia": "F", "etiqueta": "17 | F", "etiquetaSC": "17 | F", "parroquia": "SAGRARIO", "circunscripcion": "CIRCUNSCRIPCION URBANA 1", "canton": "IBARRA", "sec_anm": "100150016001", "pob_t": 382.0, "v_pres": 142.0, "dens_pob": 3426.0, "bbox": [[-78.121452, 0.358322], [-78.117051, 0.361447]], "centroid": [-78.119004, 0.359607]}, "geometry": {"type": "Point", "coordinates": [-78.119004, 0.359607]}}, {"type": "Feature", "properties": {"sc": "18", "num_muestra": 18, "codigo_muestra": "18", "tipologia": "B", "etiqueta": "18 | B", "etiquetaSC": "18 | B", "parroquia": "SAGRARIO", "circunscripcion": "CIRCUNSCRIPCION URBANA 1", "canton": "IBARRA", "sec_anm": "100150021003", "pob_t": 356.0, "v_pres": 103.0, "dens_pob": 2949.5, "bbox": [[-78.139468, 0.351559], [-78.135592, 0.356076]], "centroid": [-78.137476, 0.353727]}, "geometry": {"type": "Point", "coordinates": [-78.137476, 0.353727]}}, {"type": "Feature", "properties": {"sc": "19", "num_muestra": 19, "codigo_muestra": "19", "tipologia": "C", "etiqueta": "19 | C", "etiquetaSC": "19 | C", "parroquia": "SAGRARIO", "circunscripcion": "CIRCUNSCRIPCION URBANA 1", "canton": "IBARRA", "sec_anm": "100150006007", "pob_t": 253.0, "v_pres": 120.0, "dens_pob": 7376.1, "bbox": [[-78.113457, 0.359755], [-78.111955, 0.36218]], "centroid": [-78.112711, 0.360974]}, "geometry": {"type": "Point", "coordinates": [-78.112711, 0.360974]}}, {"type": "Feature", "properties": {"sc": "20", "num_muestra": 20, "codigo_muestra": "20", "tipologia": "G", "etiqueta": "20 | G", "etiquetaSC": "20 | G", "parroquia": "SAGRARIO", "circunscripcion": "CIRCUNSCRIPCION URBANA 1", "canton": "IBARRA", "sec_anm": "100150025001", "pob_t": 484.0, "v_pres": 147.0, "dens_pob": 8913.4, "bbox": [[-78.151964, 0.337756], [-78.149554, 0.341345]], "centroid": [-78.150762, 0.339403]}, "geometry": {"type": "Point", "coordinates": [-78.150762, 0.339403]}}, {"type": "Feature", "properties": {"sc": "21", "num_muestra": 21, "codigo_muestra": "21", "tipologia": "D", "etiqueta": "21 | D", "etiquetaSC": "21 | D", "parroquia": "SAGRARIO", "circunscripcion": "CIRCUNSCRIPCION URBANA 1", "canton": "IBARRA", "sec_anm": "100150024005", "pob_t": 317.0, "v_pres": 96.0, "dens_pob": 3847.1, "bbox": [[-78.149582, 0.347435], [-78.145724, 0.350862]], "centroid": [-78.147369, 0.349227]}, "geometry": {"type": "Point", "coordinates": [-78.147369, 0.349227]}}, {"type": "Feature", "properties": {"sc": "22", "num_muestra": 22, "codigo_muestra": "22", "tipologia": "B", "etiqueta": "22 | B", "etiquetaSC": "22 | B", "parroquia": "SAGRARIO", "circunscripcion": "CIRCUNSCRIPCION URBANA 1", "canton": "IBARRA", "sec_anm": "100150015005", "pob_t": 427.0, "v_pres": 139.0, "dens_pob": 7820.5, "bbox": [[-78.126494, 0.355597], [-78.123593, 0.358522]], "centroid": [-78.124806, 0.357284]}, "geometry": {"type": "Point", "coordinates": [-78.124806, 0.357284]}}, {"type": "Feature", "properties": {"sc": "23", "num_muestra": 23, "codigo_muestra": "23", "tipologia": "H", "etiqueta": "23 | H", "etiquetaSC": "23 | H", "parroquia": "SAGRARIO", "circunscripcion": "CIRCUNSCRIPCION URBANA 1", "canton": "IBARRA", "sec_anm": "100150002008", "pob_t": 361.0, "v_pres": 104.0, "dens_pob": 2932.6, "bbox": [[-78.125069, 0.368506], [-78.115879, 0.369845]], "centroid": [-78.120479, 0.369162]}, "geometry": {"type": "Point", "coordinates": [-78.120479, 0.369162]}}, {"type": "Feature", "properties": {"sc": "24", "num_muestra": 24, "codigo_muestra": "24", "tipologia": "D", "etiqueta": "24 | D", "etiquetaSC": "24 | D", "parroquia": "SAGRARIO", "circunscripcion": "CIRCUNSCRIPCION URBANA 1", "canton": "IBARRA", "sec_anm": "100150024002", "pob_t": 374.0, "v_pres": 116.0, "dens_pob": 10967.7, "bbox": [[-78.152293, 0.353543], [-78.149944, 0.355871]], "centroid": [-78.151075, 0.35466]}, "geometry": {"type": "Point", "coordinates": [-78.151075, 0.35466]}}, {"type": "Feature", "properties": {"sc": "25", "num_muestra": 25, "codigo_muestra": "25", "tipologia": "E", "etiqueta": "25 | E", "etiquetaSC": "25 | E", "parroquia": "SAGRARIO", "circunscripcion": "CIRCUNSCRIPCION URBANA 1", "canton": "IBARRA", "sec_anm": "100150022003", "pob_t": 362.0, "v_pres": 115.0, "dens_pob": 5370.9, "bbox": [[-78.135513, 0.347863], [-78.132283, 0.351051]], "centroid": [-78.133795, 0.349457]}, "geometry": {"type": "Point", "coordinates": [-78.133795, 0.349457]}}, {"type": "Feature", "properties": {"sc": "26", "num_muestra": 26, "codigo_muestra": "26", "tipologia": "A", "etiqueta": "26 | A", "etiquetaSC": "26 | A", "parroquia": "SAGRARIO", "circunscripcion": "CIRCUNSCRIPCION URBANA 1", "canton": "IBARRA", "sec_anm": "100150020004", "pob_t": 422.0, "v_pres": 134.0, "dens_pob": 10193.2, "bbox": [[-78.1287, 0.35023], [-78.126305, 0.352756]], "centroid": [-78.127368, 0.351417]}, "geometry": {"type": "Point", "coordinates": [-78.127368, 0.351417]}}, {"type": "Feature", "properties": {"sc": "27", "num_muestra": 27, "codigo_muestra": "27", "tipologia": "B", "etiqueta": "27 | B", "etiquetaSC": "27 | B", "parroquia": "SAGRARIO", "circunscripcion": "CIRCUNSCRIPCION URBANA 1", "canton": "IBARRA", "sec_anm": "100150019005", "pob_t": 256.0, "v_pres": 87.0, "dens_pob": 5120.0, "bbox": [[-78.123951, 0.351052], [-78.119958, 0.352915]], "centroid": [-78.12179, 0.351962]}, "geometry": {"type": "Point", "coordinates": [-78.12179, 0.351962]}}, {"type": "Feature", "properties": {"sc": "28", "num_muestra": 28, "codigo_muestra": "28", "tipologia": "F", "etiqueta": "28 | F", "etiquetaSC": "28 | F", "parroquia": "SAGRARIO", "circunscripcion": "CIRCUNSCRIPCION URBANA 1", "canton": "IBARRA", "sec_anm": "100150017002", "pob_t": 497.0, "v_pres": 165.0, "dens_pob": 10122.2, "bbox": [[-78.116818, 0.353862], [-78.113939, 0.355799]], "centroid": [-78.115407, 0.354692]}, "geometry": {"type": "Point", "coordinates": [-78.115407, 0.354692]}}, {"type": "Feature", "properties": {"sc": "29", "num_muestra": 29, "codigo_muestra": "29", "tipologia": "A", "etiqueta": "29 | A", "etiquetaSC": "29 | A", "parroquia": "SAGRARIO", "circunscripcion": "CIRCUNSCRIPCION URBANA 1", "canton": "IBARRA", "sec_anm": "100150013002", "pob_t": 379.0, "v_pres": 124.0, "dens_pob": 13439.7, "bbox": [[-78.131018, 0.357989], [-78.128962, 0.360288]], "centroid": [-78.130135, 0.359134]}, "geometry": {"type": "Point", "coordinates": [-78.130135, 0.359134]}}, {"type": "Feature", "properties": {"sc": "30", "num_muestra": 30, "codigo_muestra": "30", "tipologia": "G", "etiqueta": "30 | G", "etiquetaSC": "30 | G", "parroquia": "SAGRARIO", "circunscripcion": "CIRCUNSCRIPCION URBANA 1", "canton": "IBARRA", "sec_anm": "100150007002", "pob_t": 361.0, "v_pres": 107.0, "dens_pob": 7568.1, "bbox": [[-78.124551, 0.361999], [-78.121454, 0.364611]], "centroid": [-78.12254, 0.363286]}, "geometry": {"type": "Point", "coordinates": [-78.12254, 0.363286]}}, {"type": "Feature", "properties": {"sc": "31", "num_muestra": 31, "codigo_muestra": "31", "tipologia": "C", "etiqueta": "31 | C", "etiquetaSC": "31 | C", "parroquia": "SAGRARIO", "circunscripcion": "CIRCUNSCRIPCION URBANA 1", "canton": "IBARRA", "sec_anm": "100150023008", "pob_t": 320.0, "v_pres": 88.0, "dens_pob": 10958.9, "bbox": [[-78.146446, 0.342547], [-78.143966, 0.345058]], "centroid": [-78.145294, 0.343803]}, "geometry": {"type": "Point", "coordinates": [-78.145294, 0.343803]}}, {"type": "Feature", "properties": {"sc": "32", "num_muestra": 32, "codigo_muestra": "32", "tipologia": "A", "etiqueta": "32 | A", "etiquetaSC": "32 | A", "parroquia": "CARANQUI", "circunscripcion": "CIRCUNSCRIPCION URBANA 2", "canton": "IBARRA", "sec_anm": "100150043005", "pob_t": 291.0, "v_pres": 82.0, "dens_pob": 6204.7, "bbox": [[-78.12127, 0.32065], [-78.118827, 0.322621]], "centroid": [-78.120087, 0.321446]}, "geometry": {"type": "Point", "coordinates": [-78.120087, 0.321446]}}, {"type": "Feature", "properties": {"sc": "33", "num_muestra": 33, "codigo_muestra": "33", "tipologia": "C", "etiqueta": "33 | C", "etiquetaSC": "33 | C", "parroquia": "CARANQUI", "circunscripcion": "CIRCUNSCRIPCION URBANA 2", "canton": "IBARRA", "sec_anm": "100150047002", "pob_t": 503.0, "v_pres": 147.0, "dens_pob": 9314.8, "bbox": [[-78.125982, 0.315173], [-78.123469, 0.317786]], "centroid": [-78.12473, 0.31647]}, "geometry": {"type": "Point", "coordinates": [-78.12473, 0.31647]}}, {"type": "Feature", "properties": {"sc": "34", "num_muestra": 34, "codigo_muestra": "34", "tipologia": "D", "etiqueta": "34 | D", "etiquetaSC": "34 | D", "parroquia": "CARANQUI", "circunscripcion": "CIRCUNSCRIPCION URBANA 2", "canton": "IBARRA", "sec_anm": "100150042003", "pob_t": 481.0, "v_pres": 147.0, "dens_pob": 1754.2, "bbox": [[-78.119956, 0.311092], [-78.115428, 0.317561]], "centroid": [-78.117915, 0.314321]}, "geometry": {"type": "Point", "coordinates": [-78.117915, 0.314321]}}, {"type": "Feature", "properties": {"sc": "35", "num_muestra": 35, "codigo_muestra": "35", "tipologia": "E", "etiqueta": "35 | E", "etiquetaSC": "35 | E", "parroquia": "CARANQUI", "circunscripcion": "CIRCUNSCRIPCION URBANA 2", "canton": "IBARRA", "sec_anm": "100150042006", "pob_t": 480.0, "v_pres": 138.0, "dens_pob": 4567.1, "bbox": [[-78.1243, 0.308026], [-78.120035, 0.310255]], "centroid": [-78.122147, 0.309145]}, "geometry": {"type": "Point", "coordinates": [-78.122147, 0.309145]}}, {"type": "Feature", "properties": {"sc": "36", "num_muestra": 36, "codigo_muestra": "36", "tipologia": "H", "etiqueta": "36 | H", "etiquetaSC": "36 | H", "parroquia": "SAN FRANCISCO", "circunscripcion": "CIRCUNSCRIPCION URBANA 2", "canton": "IBARRA", "sec_anm": "100150031002", "pob_t": 420.0, "v_pres": 137.0, "dens_pob": 12574.9, "bbox": [[-78.111788, 0.341717], [-78.109788, 0.344354]], "centroid": [-78.11072, 0.343067]}, "geometry": {"type": "Point", "coordinates": [-78.11072, 0.343067]}}, {"type": "Feature", "properties": {"sc": "37", "num_muestra": 37, "codigo_muestra": "37", "tipologia": "F", "etiqueta": "37 | F", "etiquetaSC": "37 | F", "parroquia": "SAN FRANCISCO", "circunscripcion": "CIRCUNSCRIPCION URBANA 2", "canton": "IBARRA", "sec_anm": "100150033008", "pob_t": 493.0, "v_pres": 132.0, "dens_pob": 8427.4, "bbox": [[-78.109701, 0.328951], [-78.105195, 0.332088]], "centroid": [-78.107366, 0.330552]}, "geometry": {"type": "Point", "coordinates": [-78.107366, 0.330552]}}, {"type": "Feature", "properties": {"sc": "38", "num_muestra": 38, "codigo_muestra": "38", "tipologia": "B", "etiqueta": "38 | B", "etiquetaSC": "38 | B", "parroquia": "SAN FRANCISCO", "circunscripcion": "CIRCUNSCRIPCION URBANA 2", "canton": "IBARRA", "sec_anm": "100150041008", "pob_t": 630.0, "v_pres": 170.0, "dens_pob": 2642.6, "bbox": [[-78.1077, 0.319471], [-78.10286, 0.325172]], "centroid": [-78.105266, 0.322308]}, "geometry": {"type": "Point", "coordinates": [-78.105266, 0.322308]}}, {"type": "Feature", "properties": {"sc": "39", "num_muestra": 39, "codigo_muestra": "39", "tipologia": "C", "etiqueta": "39 | C", "etiquetaSC": "39 | C", "parroquia": "SAN FRANCISCO", "circunscripcion": "CIRCUNSCRIPCION URBANA 2", "canton": "IBARRA", "sec_anm": "100150027005", "pob_t": 305.0, "v_pres": 92.0, "dens_pob": 5417.4, "bbox": [[-78.136593, 0.336133], [-78.133595, 0.339278]], "centroid": [-78.135193, 0.33782]}, "geometry": {"type": "Point", "coordinates": [-78.135193, 0.33782]}}, {"type": "Feature", "properties": {"sc": "40", "num_muestra": 40, "codigo_muestra": "40", "tipologia": "G", "etiqueta": "40 | G", "etiquetaSC": "40 | G", "parroquia": "SAN FRANCISCO", "circunscripcion": "CIRCUNSCRIPCION URBANA 2", "canton": "IBARRA", "sec_anm": "100150033003", "pob_t": 458.0, "v_pres": 156.0, "dens_pob": 16654.5, "bbox": [[-78.116433, 0.333908], [-78.114607, 0.33603]], "centroid": [-78.115517, 0.335001]}, "geometry": {"type": "Point", "coordinates": [-78.115517, 0.335001]}}, {"type": "Feature", "properties": {"sc": "41", "num_muestra": 41, "codigo_muestra": "41", "tipologia": "D", "etiqueta": "41 | D", "etiquetaSC": "41 | D", "parroquia": "SAN FRANCISCO", "circunscripcion": "CIRCUNSCRIPCION URBANA 2", "canton": "IBARRA", "sec_anm": "100150030001", "pob_t": 329.0, "v_pres": 123.0, "dens_pob": 6783.5, "bbox": [[-78.120953, 0.34588], [-78.117131, 0.347366]], "centroid": [-78.119047, 0.346508]}, "geometry": {"type": "Point", "coordinates": [-78.119047, 0.346508]}}, {"type": "Feature", "properties": {"sc": "42", "num_muestra": 42, "codigo_muestra": "42", "tipologia": "B", "etiqueta": "42 | B", "etiquetaSC": "42 | B", "parroquia": "SAN FRANCISCO", "circunscripcion": "CIRCUNSCRIPCION URBANA 2", "canton": "IBARRA", "sec_anm": "100150025003", "pob_t": 402.0, "v_pres": 111.0, "dens_pob": 6547.2, "bbox": [[-78.151108, 0.334193], [-78.148051, 0.338071]], "centroid": [-78.149654, 0.336109]}, "geometry": {"type": "Point", "coordinates": [-78.149654, 0.336109]}}, {"type": "Feature", "properties": {"sc": "43", "num_muestra": 43, "codigo_muestra": "43", "tipologia": "H", "etiqueta": "43 | H", "etiquetaSC": "43 | H", "parroquia": "SAN FRANCISCO", "circunscripcion": "CIRCUNSCRIPCION URBANA 2", "canton": "IBARRA", "sec_anm": "100150026004", "pob_t": 251.0, "v_pres": 80.0, "dens_pob": 3664.2, "bbox": [[-78.144903, 0.339168], [-78.142056, 0.342579]], "centroid": [-78.143654, 0.340784]}, "geometry": {"type": "Point", "coordinates": [-78.143654, 0.340784]}}, {"type": "Feature", "properties": {"sc": "44", "num_muestra": 44, "codigo_muestra": "44", "tipologia": "D", "etiqueta": "44 | D", "etiquetaSC": "44 | D", "parroquia": "SAN FRANCISCO", "circunscripcion": "CIRCUNSCRIPCION URBANA 2", "canton": "IBARRA", "sec_anm": "100150035003", "pob_t": 377.0, "v_pres": 131.0, "dens_pob": 7181.0, "bbox": [[-78.124493, 0.339397], [-78.121215, 0.341273]], "centroid": [-78.12284, 0.340423]}, "geometry": {"type": "Point", "coordinates": [-78.12284, 0.340423]}}, {"type": "Feature", "properties": {"sc": "45", "num_muestra": 45, "codigo_muestra": "45", "tipologia": "E", "etiqueta": "45 | E", "etiquetaSC": "45 | E", "parroquia": "SAN FRANCISCO", "circunscripcion": "CIRCUNSCRIPCION URBANA 2", "canton": "IBARRA", "sec_anm": "100150028001", "pob_t": 331.0, "v_pres": 117.0, "dens_pob": 3629.4, "bbox": [[-78.137573, 0.343198], [-78.134493, 0.346511]], "centroid": [-78.135977, 0.344805]}, "geometry": {"type": "Point", "coordinates": [-78.135977, 0.344805]}}, {"type": "Feature", "properties": {"sc": "46", "num_muestra": 46, "codigo_muestra": "46", "tipologia": "A", "etiqueta": "46 | A", "etiquetaSC": "46 | A", "parroquia": "SAN FRANCISCO", "circunscripcion": "CIRCUNSCRIPCION URBANA 2", "canton": "IBARRA", "sec_anm": "100150037006", "pob_t": 257.0, "v_pres": 76.0, "dens_pob": 7470.9, "bbox": [[-78.130504, 0.331938], [-78.128517, 0.33499]], "centroid": [-78.129029, 0.333438]}, "geometry": {"type": "Point", "coordinates": [-78.129029, 0.333438]}}, {"type": "Feature", "properties": {"sc": "47", "num_muestra": 47, "codigo_muestra": "47", "tipologia": "B", "etiqueta": "47 | B", "etiquetaSC": "47 | B", "parroquia": "SAN FRANCISCO", "circunscripcion": "CIRCUNSCRIPCION URBANA 2", "canton": "IBARRA", "sec_anm": "100150028006", "pob_t": 312.0, "v_pres": 101.0, "dens_pob": 5064.9, "bbox": [[-78.129843, 0.344839], [-78.124721, 0.346933]], "centroid": [-78.127221, 0.345852]}, "geometry": {"type": "Point", "coordinates": [-78.127221, 0.345852]}}, {"type": "Feature", "properties": {"sc": "48", "num_muestra": 48, "codigo_muestra": "48", "tipologia": "F", "etiqueta": "48 | F", "etiquetaSC": "48 | F", "parroquia": "SAN FRANCISCO", "circunscripcion": "CIRCUNSCRIPCION URBANA 2", "canton": "IBARRA", "sec_anm": "100150038002", "pob_t": 463.0, "v_pres": 148.0, "dens_pob": 5459.9, "bbox": [[-78.123705, 0.32975], [-78.120986, 0.334913]], "centroid": [-78.122349, 0.332247]}, "geometry": {"type": "Point", "coordinates": [-78.122349, 0.332247]}}, {"type": "Feature", "properties": {"sc": "49", "num_muestra": 49, "codigo_muestra": "49", "tipologia": "A", "etiqueta": "49 | A", "etiquetaSC": "49 | A", "parroquia": "SAN FRANCISCO", "circunscripcion": "CIRCUNSCRIPCION URBANA 2", "canton": "IBARRA", "sec_anm": "100150045002", "pob_t": 416.0, "v_pres": 122.0, "dens_pob": 10890.1, "bbox": [[-78.136973, 0.3264], [-78.135302, 0.329102]], "centroid": [-78.13616, 0.327753]}, "geometry": {"type": "Point", "coordinates": [-78.13616, 0.327753]}}, {"type": "Feature", "properties": {"sc": "50", "num_muestra": 50, "codigo_muestra": "50", "tipologia": "G", "etiqueta": "50 | G", "etiquetaSC": "50 | G", "parroquia": "SAN FRANCISCO", "circunscripcion": "CIRCUNSCRIPCION URBANA 2", "canton": "IBARRA", "sec_anm": "100150025008", "pob_t": 333.0, "v_pres": 101.0, "dens_pob": 2770.4, "bbox": [[-78.148291, 0.329415], [-78.142812, 0.332272]], "centroid": [-78.145317, 0.330831]}, "geometry": {"type": "Point", "coordinates": [-78.145317, 0.330831]}}]}